
# Worst residual: 30.13 km
# MJD 60973.000000 (2025 Oct 25  0:00)
A11qfDA = A11qPnV = A11q7qq
1 79874U 25000ZZA 25298.49919926  .00000000  00000-0  00000-0 0 27773
2 79874 028.6290 330.4556 6905553 122.2850 292.6119 00.87169191    05

# Worst residual: 34.98 km
# MJD 60974.000000 (2025 Oct 26  0:00)
A11qfDA = A11qPnV = A11q7qq
1 79874U 25000ZZA 25299.49919926  .00000000  00000-0  00000-0 0 27774
2 79874 028.6146 330.4799 6892536 122.2592 246.6608 00.87195428    07

# Worst residual: 25.70 km
# MJD 60975.000000 (2025 Oct 27  0:00)
A11qfDA = A11qPnV = A11q7qq
1 79874U 25000ZZA 25300.49919926  .00000000  00000-0  00000-0 0 27777
2 79874 028.6021 330.4932 6882526 122.2226 200.7042 00.87229922    00

# Worst residual: 27.13 km
# MJD 60976.000000 (2025 Oct 28  0:00)
A11qfDA = A11qPnV = A11q7qq
1 79874U 25000ZZA 25301.49919926  .00000000  00000-0  00000-0 0 27778
2 79874 028.5870 330.5082 6870832 122.1683 154.7143 00.87253871    01

# Worst residual: 17.14 km
# MJD 60977.000000 (2025 Oct 29  0:00)
A11qfDA = A11qPnV = A11q7qq
1 79874U 25000ZZA 25302.49919926  .00000000  00000-0  00000-0 0 27779
2 79874 028.5715 330.5183 6855921 122.1112 108.6998 00.87250208    07

# Worst residual: 28.65 km
# MJD 60978.000000 (2025 Oct 30  0:00)
A11qfDA = A11qPnV = A11q7qq
1 79874U 25000ZZA 25303.49919926  .00000000  00000-0  00000-0 0 27770
2 79874 028.5533 330.5365 6840277 122.0604 062.6434 00.87212953    09

# Worst residual: 26.92 km
# MJD 60979.000000 (2025 Oct 31  0:00)
A11qfDA = A11qPnV = A11q7qq
1 79874U 25000ZZA 25304.49919926  .00000000  00000-0  00000-0 0 27771
2 79874 028.5356 330.5571 6826038 122.0001 016.6070 00.87154235    04

# Worst residual: 22.36 km
# MJD 60980.000000 (2025 Nov  1  0:00)
A11qfDA = A11qPnV = A11q7qq
1 79874U 25000ZZA 25305.49919926  .00000000  00000-0  00000-0 0 27772
2 79874 028.5190 330.5816 6811944 121.9196 330.6136 00.87117280    06

# Worst residual: 34.39 km
# MJD 60981.000000 (2025 Nov  2  0:00)
A11qfDA = A11qPnV = A11q7qq
1 79874U 25000ZZA 25306.49919926  .00000000  00000-0  00000-0 0 27773
2 79874 028.5043 330.6041 6797602 121.8520 284.5931 00.87125236    08

# Worst residual: 31.63 km
# MJD 60982.000000 (2025 Nov  3  0:00)
A11qfDA = A11qPnV = A11q7qq
1 79874U 25000ZZA 25307.49919926  .00000000  00000-0  00000-0 0 27774
2 79874 028.4942 330.6081 6787058 121.8186 238.5004 00.87166751    08

# Worst residual: 22.49 km
# MJD 60983.000000 (2025 Nov  4  0:00)
A11qfDA = A11qPnV = A11q7qq
1 79874U 25000ZZA 25308.49919926  .00000000  00000-0  00000-0 0 27775
2 79874 028.4817 330.6177 6777771 121.7538 192.4031 00.87199196    03

# Worst residual: 19.82 km
# MJD 60984.000000 (2025 Nov  5  0:00)
A11qfDA = A11qPnV = A11q7qq
1 79874U 25000ZZA 25309.49919926  .00000000  00000-0  00000-0 0 27776
2 79874 028.4688 330.6275 6766543 121.6783 146.2748 00.87209328    05

# Worst residual: 24.14 km
# MJD 60985.000000 (2025 Nov  6  0:00)
A11qfDA = A11qPnV = A11q7qq
1 79874U 25000ZZA 25310.49919926  .00000000  00000-0  00000-0 0 27778
2 79874 028.4554 330.6343 6752802 121.6115 100.1137 00.87193079    01

# Worst residual: 28.97 km
# MJD 60986.000000 (2025 Nov  7  0:00)
A11qfDA = A11qPnV = A11q7qq
1 79874U 25000ZZA 25311.49919926  .00000000  00000-0  00000-0 0 27779
2 79874 028.4406 330.6475 6739602 121.5512 053.9231 00.87148975    01

# Worst residual: 27.83 km
# MJD 60987.000000 (2025 Nov  8  0:00)
A11qfDA = A11qPnV = A11q7qq
1 79874U 25000ZZA 25312.49919926  .00000000  00000-0  00000-0 0 27770
2 79874 028.4253 330.6682 6727549 121.4721 007.7667 00.87091743    09

# Worst residual: 21.99 km
# MJD 60988.000000 (2025 Nov  9  0:00)
A11qfDA = A11qPnV = A11q7qq
1 79874U 25000ZZA 25313.49919926  .00000000  00000-0  00000-0 0 27771
2 79874 028.4145 330.6798 6714551 121.3877 321.6464 00.87072139    08

# Worst residual: 33.38 km
# MJD 60989.000000 (2025 Nov 10  0:00)
A11qfDA = A11qPnV = A11q7qq
1 79874U 25000ZZA 25314.49919926  .00000000  00000-0  00000-0 0 27772
2 79874 028.4037 330.6877 6701499 121.3261 275.4783 00.87097309    06
